NORAD_CAT_ID,OBJECT_NAME,OBJECT_TYPE,EPOCH,MEAN_MOTION,ECCENTRICITY,INCLINATION,RA_OF_ASC_NODE,ARG_OF_PERICENTER,MEAN_ANOMALY,BSTAR,MEAN_MOTION_DOT,MEAN_MOTION_DDOT,TLE_LINE0,TLE_LINE1,TLE_LINE2,SEMIMAJOR_AXIS,PERIOD,APOGEE,PERIGEE,DECAYED
53247.0,STARLINK-4061,PAYLOAD,2022-10-12 14:00:01,15.08843126,0.0001875999999999,53.2184,24.1332,49.8335,329.0406,1.5411e-05,-4.3e-07,0.0,0 STARLINK-4061,1 53247U 22086F   22285.58334491 -.00000043  00000-0  15411-4 0  9999,2 53247  53.2184  24.1332 0001876  49.8335 329.0406 15.08843126  1301,6917.871,95.437,541.034,538.438,0.0
53247.0,STARLINK-4061,PAYLOAD,2022-10-12 22:00:00,15.08857007,0.0001681,53.2175,22.6311,52.2658,338.2084,-0.0020015999999999,-0.00032017,0.0,0 STARLINK-4061,1 53247U 22086F   22285.91667824 -.00032017  00000-0 -20016-2 0  9997,2 53247  53.2175  22.6311 0001681  52.2658 338.2084 15.08857007  1308,6917.828,95.436,540.856,538.531,0.0
53247.0,STARLINK-4061,PAYLOAD,2022-10-13 14:00:01,15.08873614,0.0001909999999999,53.218,19.6402,45.1097,8.5366,-0.0033216,-0.00052813,0.0,0 STARLINK-4061,1 53247U 22086F   22286.58334491 -.00052813  00000-0 -33216-2 0  9994,2 53247  53.2180  19.6402 0001910  45.1097   8.5366 15.08873614  1306,6917.778,95.435,540.964,538.321,0.0
53247.0,STARLINK-4061,PAYLOAD,2022-10-13 20:00:01,15.08838987,0.0001915,53.2172,18.5137,43.2135,289.2134,-0.00028429,-4.81e-05,0.0,0 STARLINK-4061,1 53247U 22086F   22286.83335648 -.00004810  00000-0 -28429-3 0  9992,2 53247  53.2172  18.5137 0001915  43.2135 289.2134 15.08838987 13181,6917.8830000000025,95.438,541.073,538.424,0.0
53247.0,STARLINK-4061,PAYLOAD,2022-10-13 22:00:00,15.08837593,0.0001903,53.2174,18.1388,44.5507,20.7124,-0.00012241,-2.236e-05,0.0,0 STARLINK-4061,1 53247U 22086F   22286.91667824 -.00002236  00000-0 -12241-3 0  9990,2 53247  53.2174  18.1388 0001903  44.5507  20.7124 15.08837593  1301,6917.888000000001,95.438,541.069,538.436,0.0
53247.0,STARLINK-4061,PAYLOAD,2022-10-14 14:00:01,15.08856563,0.0001906999999999,53.2177,15.1502,41.2617,47.1734,-0.0019582999999999,-0.00031334,0.0,0 STARLINK-4061,1 53247U 22086F   22287.58334491 -.00031334  00000-0 -19583-2 0  9991,2 53247  53.2177  15.1502 0001907  41.2617  47.1734 15.08856563  1307,6917.83,95.437,541.014,538.376,0.0
53247.0,STARLINK-4061,PAYLOAD,2022-10-14 22:00:00,15.08837399,0.0001916999999999,53.2174,13.6496,41.5445,58.4953,-8.585899999999999e-05,-1.654e-05,0.0,0 STARLINK-4061,1 53247U 22086F   22287.91667824 -.00001654  00000-0 -85859-4 0  9990,2 53247  53.2174  13.6496 0001917  41.5445  58.4953 15.08837399  1306,6917.888000000001,95.438,541.0790000000002,538.427,0.0
53247.0,STARLINK-4061,PAYLOAD,2022-10-15 14:00:01,15.08840939,0.0001847,53.218,10.6734,39.8738,83.4001,0.00038539,5.851e-05,0.0,0 STARLINK-4061,1 53247U 22086F   22288.58334491  .00005851  00000-0  38539-3 0  9998,2 53247  53.2180  10.6734 0001847  39.8738  83.4001 15.08840939 13446,6917.878000000002,95.437,541.02,538.465,0.0
53247.0,STARLINK-4061,PAYLOAD,2022-10-15 22:00:01,15.08869833,0.0001742,53.218,9.1758,39.087,95.8467,-0.0065211,-0.0010267999999999,0.0,0 STARLINK-4061,1 53247U 22086F   22288.91668981 -.00102680  00000-0 -65211-2 0  9995,2 53247  53.2180   9.1758 0001742  39.0870  95.8467 15.08869833  1307,6917.7890000000025,95.436,540.859,538.4490000000002,0.0
53247.0,STARLINK-4061,PAYLOAD,2022-10-16 06:00:00,15.08793388,0.0001633,53.2182,7.6789,41.8429,104.6134,0.0016832999999999,0.00026569,0.0,0 STARLINK-4061,1 53247U 22086F   22289.25001157  .00026569  00000-0  16833-2 0  9994,2 53247  53.2182   7.6789 0001633  41.8429 104.6134 15.08793388 13546,6918.023,95.441,541.018,538.758,0.0
53247.0,STARLINK-4061,PAYLOAD,2022-10-16 14:00:01,15.08794196,0.0001886999999999,53.218,6.1826,36.1604,121.8506,0.0026035,0.00041338,0.0,0 STARLINK-4061,1 53247U 22086F   22289.58334491  .00041338  00000-0  26035-2 0  9996,2 53247  53.2180   6.1826 0001887  36.1604 121.8506 15.08794196  1306,6918.02,95.44,541.191,538.58,0.0
53247.0,STARLINK-4061,PAYLOAD,2022-10-16 22:00:00,15.08832693,0.0001764,53.2183,4.6845,36.9638,132.5983,-0.0004239,-7.027e-05,0.0,0 STARLINK-4061,1 53247U 22086F   22289.91667824 -.00007027  00000-0 -42390-3 0  9994,2 53247  53.2183   4.6845 0001764  36.9638 132.5983 15.08832693  1305,6917.903,95.438,540.988,538.547,0.0
53247.0,STARLINK-4061,PAYLOAD,2022-10-17 14:00:01,15.0885814,0.0001975,53.2184,1.6935,35.6378,157.1409,-0.00043973,-7.283e-05,0.0,0 STARLINK-4061,1 53247U 22086F   22290.58334491 -.00007283  00000-0 -43973-3 0  9992,2 53247  53.2184   1.6935 0001975  35.6378 157.1409 15.08858140  1305,6917.825,95.436,541.056,538.3240000000002,0.0
53247.0,STARLINK-4061,PAYLOAD,2022-10-17 22:00:00,15.08841705,0.0001817,53.2187,0.1952,37.0028,167.3754,-0.0018937,-0.00030302,0.0,0 STARLINK-4061,1 53247U 22086F   22290.91667824 -.00030302  00000-0 -18937-2 0  9997,2 53247  53.2187   0.1952 0001817  37.0028 167.3754 15.08841705  1309,6917.875,95.437,540.997,538.4830000000002,0.0
53247.0,STARLINK-4061,PAYLOAD,2022-10-18 06:00:00,15.08852818,0.0001754999999999,53.2183,358.6930000000001,41.1117,174.8461,-0.0019156,-0.00030656,0.0,0 STARLINK-4061,1 53247U 22086F   22291.25001157 -.00030656  00000-0 -19156-2 0  9992,2 53247  53.2183 358.6930 0001755  41.1117 174.8461 15.08852818 13845,6917.840999999999,95.437,540.92,538.492,0.0
53247.0,STARLINK-4061,PAYLOAD,2022-10-18 14:00:01,15.08827866,0.000197,53.219,357.2064,35.7624,191.7938,0.00038093,5.778e-05,0.0,0 STARLINK-4061,1 53247U 22086F   22291.58334491  .00005778  00000-0  38093-3 0  9995,2 53247  53.2190 357.2064 0001970  35.7624 191.7938 15.08827866  1307,6917.917,95.438,541.145,538.42,0.0
53247.0,STARLINK-4061,PAYLOAD,2022-10-18 22:00:00,15.0883225,0.0001771,53.219,355.7086,36.632,202.5081,-3.9239e-05,-9.12e-06,0.0,0 STARLINK-4061,1 53247U 22086F   22291.91667824 -.00000912  00000-0 -39239-4 0  9992,2 53247  53.2190 355.7086 0001771  36.6320 202.5081 15.08832250  1309,6917.904,95.438,540.994,538.544,0.0
53247.0,STARLINK-4061,PAYLOAD,2022-10-19 14:00:01,15.08804167,0.0002046999999999,53.219,352.7176,37.9511,224.3799,0.0032446999999999,0.0005167999999999,0.0,0 STARLINK-4061,1 53247U 22086F   22292.58334491  .00051680  00000-0  32447-2 0  9995,2 53247  53.2190 352.7176 0002047  37.9511 224.3799 15.08804167  1303,6917.99,95.44,541.271,538.439,0.0
53247.0,STARLINK-4061,PAYLOAD,2022-10-19 22:00:00,15.08834079,0.0001864,53.2189,351.2198,40.5433,233.3609,0.00045406,6.945e-05,0.0,0 STARLINK-4061,1 53247U 22086F   22292.91667824  .00006945  00000-0  45406-3 0  9995,2 53247  53.2189 351.2198 0001864  40.5433 233.3609 15.08834079  1303,6917.898,95.438,541.053,538.474,0.0
53247.0,STARLINK-4061,PAYLOAD,2022-10-20 06:00:00,15.08871011,0.0001806,53.2189,349.7238,42.4709,243.0199,-0.003171,-0.00050445,0.0,0 STARLINK-4061,1 53247U 22086F   22293.25001157 -.00050445  00000-0 -31710-2 0  9992,2 53247  53.2189 349.7238 0001806  42.4709 243.0199 15.08871011 14159,6917.786,95.436,540.9,538.401,0.0
53247.0,STARLINK-4061,PAYLOAD,2022-10-20 14:00:01,15.08808489,0.0002011,53.2181,348.2266,36.6072,260.5018,0.0034006,0.00054203,0.0,0 STARLINK-4061,1 53247U 22086F   22293.58334491  .00054203  00000-0  34006-2 0  9993,2 53247  53.2181 348.2266 0002011  36.6072 260.5018 15.08808489  1309,6917.977,95.44,541.2330000000002,538.451,0.0
53247.0,STARLINK-4061,PAYLOAD,2022-10-20 22:00:00,15.08830001,0.0001811999999999,53.2183,346.7284,39.3558,269.3249,0.00088086,0.00013755,0.0,0 STARLINK-4061,1 53247U 22086F   22293.91667824  .00013755  00000-0  88086-3 0  9994,2 53247  53.2183 346.7284 0001812  39.3558 269.3249 15.08830001  1309,6917.911,95.438,541.029,538.5219999999998,0.0
53247.0,STARLINK-4061,PAYLOAD,2022-10-21 14:00:01,15.08853188,0.0002003,53.2178,343.7398,36.1322,295.764,0.00025349,3.75e-05,0.0,0 STARLINK-4061,1 53247U 22086F   22294.58334491  .00003750  00000-0  25349-3 0  9996,2 53247  53.2178 343.7398 0002003  36.1322 295.7640 15.08853188  1302,6917.84,95.437,541.091,538.319,0.0
53247.0,STARLINK-4061,PAYLOAD,2022-10-21 22:00:00,15.08898049,0.0001846,53.2176,342.2337,36.6225,306.8866,-0.010784,-0.00168206,0.0,0 STARLINK-4061,1 53247U 22086F   22294.91667824 -.00168206  00000-0 -10784-1 0  9997,2 53247  53.2176 342.2337 0001846  36.6225 306.8866 15.08898049  1307,6917.703,95.434,540.845,538.2909999999998,0.0
53247.0,STARLINK-4061,PAYLOAD,2022-10-22 06:00:00,15.0883695,0.0001776,53.2179,340.7464,36.9831,318.0995,-0.00093737,-0.00015174,0.0,0 STARLINK-4061,1 53247U 22086F   22295.25001157 -.00015174  00000-0 -93737-3 0  9992,2 53247  53.2179 340.7464 0001776  36.9831 318.0995 15.08836950 14453,6917.89,95.438,540.9830000000002,538.526,0.0
53247.0,STARLINK-4061,PAYLOAD,2022-10-22 14:00:01,15.08805153,0.0001963,53.2176,339.2513,32.649,334.0166,0.0031618,0.00050344,0.0,0 STARLINK-4061,1 53247U 22086F   22295.58334491  .00050344  00000-0  31618-2 0  9993,2 53247  53.2176 339.2513 0001963  32.6490 334.0166 15.08805153  1309,6917.986999999999,95.44,541.21,538.494,0.0
53247.0,STARLINK-4061,PAYLOAD,2022-10-22 22:00:00,15.08825702,0.0001802,53.2175,337.7532,36.5423,341.7101,0.0021901,0.00034726,0.0,0 STARLINK-4061,1 53247U 22086F   22295.91667824  .00034726  00000-0  21901-2 0  9999,2 53247  53.2175 337.7532 0001802  36.5423 341.7101 15.08825702  1309,6917.924,95.438,541.036,538.5419999999998,0.0
53247.0,STARLINK-4061,PAYLOAD,2022-10-23 08:00:01,15.08860729,0.0002016,53.2174,335.8838,38.4151,84.4004,-0.0024596,-0.00039243,0.0,0 STARLINK-4061,1 53247U 22086F   22296.33335648 -.00039243  00000-0 -24596-2 0  9996,2 53247  53.2174 335.8838 0002016  38.4151  84.4004 15.08860729 14612,6917.816999999999,95.436,541.077,538.2869999999998,0.0
53247.0,STARLINK-4061,PAYLOAD,2022-10-23 14:00:01,15.08816053,0.000212,53.2174,334.7622,35.7639,5.6929,0.0032135999999999,0.00051195,0.0,0 STARLINK-4061,1 53247U 22086F   22296.58334491  .00051195  00000-0  32136-2 0  9995,2 53247  53.2174 334.7622 0002120  35.7639   5.6929 15.08816053  1302,6917.954000000002,95.439,541.285,538.352,0.0
